OBJECT_NAME,OBJECT_ID,EPOCH,MEAN_MOTION,ECCENTRICITY,INCLINATION,RA_OF_ASC_NODE,ARG_OF_PERICENTER,MEAN_ANOMALY,EPHEMERIS_TYPE,CLASSIFICATION_TYPE,NORAD_CAT_ID,ELEMENT_SET_NO,REV_AT_EPOCH,BSTAR,MEAN_MOTION_DOT,MEAN_MOTION_DDOT
STARLINK-31193,2024-012L,2024-11-29T02:34:05.411712,15.25898815,.0001934,43.0031,270.9769,299.1011,60.9647,0,U,58797,999,5008,.11028E-3,.2627E-4,0
STARLINK-31168,2024-012M,2024-11-29T02:30:53.056800,15.25864483,.0001249,42.9999,270.9517,266.7836,93.2872,0,U,58798,999,5008,-.30415E-3,-.8193E-4,0
STARLINK-31191,2024-012P,2024-11-29T04:01:48.990432,15.25918303,.0000567,43.0007,270.5680,303.5734,56.5062,0,U,58800,999,4994,.43581E-4,.883E-5,0
STARLINK-31170,2024-012Q,2024-11-28T02:50:25.096992,15.25902675,.0001201,43.0013,276.4485,272.4131,87.6582,0,U,58801,999,4992,.25004E-3,.6287E-4,0
STARLINK-31173,2024-012R,2024-11-29T02:00:45.028800,15.33411824,.0008085,43.0033,243.3660,233.0558,126.9555,0,U,58802,999,5039,.29311E-2,.97753E-3,0
STARLINK-31141,2024-012S,2024-11-28T13:40:27.539616,15.25905712,.0001365,43.0047,273.8126,290.9719,69.0986,0,U,58803,999,5000,.93927E-4,.22E-4,0
STARLINK-31188,2024-012T,2024-11-29T02:17:48.158592,15.25901498,.0001882,42.9998,270.8719,235.9540,124.1133,0,U,58804,999,5008,.47224E-3,.12113E-3,0
STARLINK-31138,2024-012V,2024-11-29T03:12:57.883392,15.25911902,.0000926,43.0037,270.2782,320.0695,40.0088,0,U,58806,999,5009,.27807E-3,.7024E-4,0
STARLINK-31163,2024-012W,2024-11-28T19:47:42.766656,15.25924997,.000115,43.0007,272.2788,258.5460,101.5262,0,U,58807,999,5003,.51825E-3,.13329E-3,0
STARLINK-31174,2024-012X,2024-11-28T21:18:46.306080,15.25840763,.0002721,43.0056,271.8887,270.5630,89.4909,0,U,58808,999,5005,-.47396E-3,-.1261E-3,0
STARLINK-31169,2024-012Y,2024-11-28T21:15:28.101888,15.25885099,.0002527,43.0055,271.8704,267.4470,92.6091,0,U,58809,999,5005,.10085E-3,.2379E-4,0
STARLINK-31233,2024-017A,2024-11-28T19:34:33.712608,15.34219012,.0001051,53.1599,215.0176,90.6488,269.4634,0,U,58826,999,4875,.18105E-3,.5711E-4,0
STARLINK-31271,2024-017B,2024-11-29T02:23:20.653440,15.34219638,.0001051,53.1608,213.9389,88.6599,271.4524,0,U,58827,999,4869,.3811E-4,.905E-5,0
STARLINK-31222,2024-017C,2024-11-29T02:16:38.654976,15.34227727,.0002494,53.1595,213.9092,83.2779,276.8507,0,U,58828,999,4868,.23372E-3,.7486E-4,0
STARLINK-31258,2024-017D,2024-11-28T23:08:33.326304,15.34219903,.0001058,53.1592,214.5143,88.7256,271.3868,0,U,58829,999,4866,.47629E-4,.1225E-4,0
STARLINK-31253,2024-017E,2024-11-28T19:54:12.729600,15.34218885,.0000685,53.1578,215.0950,358.2047,1.8952,0,U,58830,999,4863,.1303E-3,.4004E-4,0
STARLINK-31232,2024-017F,2024-11-29T02:03:13.552128,15.34203770,.0001082,53.1598,213.8553,104.1036,256.0087,0,U,58831,999,4868,.31735E-4,.69E-5,0
STARLINK-31263,2024-017G,2024-11-29T02:02:45.391776,15.34209200,.0000872,53.1605,213.8506,76.4914,283.6186,0,U,58832,999,4880,-.25601E-3,-.8962E-4,0
STARLINK-31175,2024-017H,2024-11-24T13:28:29.199648,16.12082968,.0013587,53.1073,207.1590,181.4466,257.6310,0,U,58833,999,4838,.1E-3,.109852E-2,.1762E-4
STARLINK-31171,2024-017J,2024-11-28T23:16:56.220960,15.42906805,.0004878,53.1605,213.1276,193.4466,166.6411,0,U,58834,999,4869,.10005E-2,.445E-3,0
STARLINK-31246,2024-017K,2024-11-28T19:34:04.852416,15.34217159,.0000777,53.1599,215.0081,87.8827,272.2264,0,U,58835,999,4864,.74406E-4,.2125E-4,0
STARLINK-31251,2024-017L,2024-11-28T22:35:27.656448,15.34233106,.0000829,53.1603,214.3709,105.3799,254.7295,0,U,58836,999,4878,-.13648E-3,-.4959E-4,0
STARLINK-31172,2024-017M,2024-11-28T23:08:27.686976,15.54485744,.0013433,53.1556,205.2316,146.5451,213.6411,0,U,58837,999,4879,.15049E-2,.101974E-2,0
STARLINK-31249,2024-017N,2024-11-28T22:34:58.937952,15.34230640,.0001046,53.1595,214.3669,99.9260,260.1860,0,U,58838,999,4866,-.42242E-4,-.1795E-4,0
STARLINK-31250,2024-017P,2024-11-28T09:58:17.879808,15.34221260,.00009,53.1592,216.7762,140.6937,219.4131,0,U,58839,999,4853,.41257E-3,.1351E-3,0
STARLINK-31248,2024-017Q,2024-11-28T19:39:41.653440,15.27528415,.0001559,53.1619,219.9892,73.2016,286.9155,0,U,58840,999,4867,.16472E-3,.4148E-4,0
STARLINK-31236,2024-017R,2024-11-28T22:28:16.831488,15.34210530,.0000961,53.1608,214.3401,78.2501,281.8609,0,U,58841,999,4868,.72857E-4,.2072E-4,0
STARLINK-31228,2024-017S,2024-11-29T01:29:10.894560,15.34216546,.0000777,53.1607,213.7007,97.4282,262.6809,0,U,58842,999,4869,-.49377E-4,-.2033E-4,0
STARLINK-31280,2024-017T,2024-11-28T23:49:08.935392,15.34214423,.0000807,53.1609,213.9759,86.7003,273.4092,0,U,58843,999,4868,.46801E-4,.1197E-4,0
STARLINK-31269,2024-017U,2024-11-29T01:24:40.040928,15.04924233,.0001395,53.1622,261.9460,76.3812,283.7333,0,U,58844,999,4799,.12028E-3,.1445E-4,0
