STARLINK-31193          
1 58797U 24012L   24334.10700708  .00002627  00000+0  11028-3 0  9995
2 58797  43.0031 270.9769 0001934 299.1011  60.9647 15.25898815 50086
STARLINK-31168          
1 58798U 24012M   24334.10478075 -.00008193  00000+0 -30415-3 0  9992
2 58798  42.9999 270.9517 0001249 266.7836  93.2872 15.25864483 50086
STARLINK-31191          
1 58800U 24012P   24334.16792813  .00000883  00000+0  43581-4 0  9996
2 58800  43.0007 270.5680 0000567 303.5734  56.5062 15.25918303 49945
STARLINK-31170          
1 58801U 24012Q   24333.11834603  .00006287  00000+0  25004-3 0  9998
2 58801  43.0013 276.4485 0001201 272.4131  87.6582 15.25902675 49927
STARLINK-31173          
1 58802U 24012R   24334.08385450  .00097753  00000+0  29311-2 0  9999
2 58802  43.0033 243.3660 0008085 233.0558 126.9555 15.33411824 50391
STARLINK-31141          
1 58803U 24012S   24333.56976319  .00002200  00000+0  93927-4 0  9991
2 58803  43.0047 273.8126 0001365 290.9719  69.0986 15.25905712 50005
STARLINK-31188          
1 58804U 24012T   24334.09569628  .00012113  00000+0  47224-3 0  9994
2 58804  42.9998 270.8719 0001882 235.9540 124.1133 15.25901498 50081
STARLINK-31138          
1 58806U 24012V   24334.13400328  .00007024  00000+0  27807-3 0  9992
2 58806  43.0037 270.2782 0000926 320.0695  40.0088 15.25911902 50095
STARLINK-31163          
1 58807U 24012W   24333.82480054  .00013329  00000+0  51825-3 0  9994
2 58807  43.0007 272.2788 0001150 258.5460 101.5262 15.25924997 50035
STARLINK-31174          
1 58808U 24012X   24333.88803595 -.00012610  00000+0 -47396-3 0  9992
2 58808  43.0056 271.8887 0002721 270.5630  89.4909 15.25840763 50055
STARLINK-31169          
1 58809U 24012Y   24333.88574192  .00002379  00000+0  10085-3 0  9995
2 58809  43.0055 271.8704 0002527 267.4470  92.6091 15.25885099 50053
STARLINK-31233          
1 58826U 24017A   24333.81566797  .00005711  00000+0  18105-3 0  9998
2 58826  53.1599 215.0176 0001051  90.6488 269.4634 15.34219012 48753
STARLINK-31271          
1 58827U 24017B   24334.09954460  .00000905  00000+0  38110-4 0  9997
2 58827  53.1608 213.9389 0001051  88.6599 271.4524 15.34219638 48696
STARLINK-31222          
1 58828U 24017C   24334.09489184  .00007486  00000+0  23372-3 0  9998
2 58828  53.1595 213.9092 0002494  83.2779 276.8507 15.34227727 48683
STARLINK-31258          
1 58829U 24017D   24333.96427461  .00001225  00000+0  47629-4 0  9991
2 58829  53.1592 214.5143 0001058  88.7256 271.3868 15.34219903 48665
STARLINK-31253          
1 58830U 24017E   24333.82931400  .00004004  00000+0  13030-3 0  9997
2 58830  53.1578 215.0950 0000685 358.2047   1.8952 15.34218885 48636
STARLINK-31232          
1 58831U 24017F   24334.08557352  .00000690  00000+0  31735-4 0  9997
2 58831  53.1598 213.8553 0001082 104.1036 256.0087 15.34203770 48687
STARLINK-31263          
1 58832U 24017G   24334.08524759 -.00008962  00000+0 -25601-3 0  9999
2 58832  53.1605 213.8506 0000872  76.4914 283.6186 15.34209200 48801
STARLINK-31175          
1 58833U 24017H   24329.56144907  .00109852  17620-4  10000-3 0  9996
2 58833  53.1073 207.1590 0013587 181.4466 257.6310 16.12082968 48386
STARLINK-31171          
1 58834U 24017J   24333.97009515  .00044500  00000+0  10005-2 0  9993
2 58834  53.1605 213.1276 0004878 193.4466 166.6411 15.42906805 48694
STARLINK-31246          
1 58835U 24017K   24333.81533394  .00002125  00000+0  74406-4 0  9998
2 58835  53.1599 215.0081 0000777  87.8827 272.2264 15.34217159 48646
STARLINK-31251          
1 58836U 24017L   24333.94129232 -.00004959  00000+0 -13648-3 0  9994
2 58836  53.1603 214.3709 0000829 105.3799 254.7295 15.34233106 48788
STARLINK-31172          
1 58837U 24017M   24333.96420934  .00101974  00000+0  15049-2 0  9999
2 58837  53.1556 205.2316 0013433 146.5451 213.6411 15.54485744 48790
STARLINK-31249          
1 58838U 24017N   24333.94095993 -.00001795  00000+0 -42242-4 0  9990
2 58838  53.1595 214.3669 0001046  99.9260 260.1860 15.34230640 48664
STARLINK-31250          
1 58839U 24017P   24333.41548472  .00013510  00000+0  41257-3 0  9998
2 58839  53.1592 216.7762 0000900 140.6937 219.4131 15.34221260 48537
STARLINK-31248          
1 58840U 24017Q   24333.81923210  .00004148  00000+0  16472-3 0  9999
2 58840  53.1619 219.9892 0001559  73.2016 286.9155 15.27528415 48672
STARLINK-31236          
1 58841U 24017R   24333.93630592  .00002072  00000+0  72857-4 0  9995
2 58841  53.1608 214.3401 0000961  78.2501 281.8609 15.34210530 48689
STARLINK-31228          
1 58842U 24017S   24334.06193165 -.00002033  00000+0 -49377-4 0  9991
2 58842  53.1607 213.7007 0000777  97.4282 262.6809 15.34216546 48691
STARLINK-31280          
1 58843U 24017T   24333.99246453  .00001197  00000+0  46801-4 0  9999
2 58843  53.1609 213.9759 0000807  86.7003 273.4092 15.34214423 48681
STARLINK-31269          
1 58844U 24017U   24334.05879677  .00001445  00000+0  12028-3 0  9997
2 58844  53.1622 261.9460 0001395  76.3812 283.7333 15.04924233 47994
